STARLINK-37262          
1 68508U 26068A   26099.83335647 -.00071126  00000+0 -35922-3 0  9996
2 68508  53.1608 353.2523 0000954 112.9611 237.7023 15.80906876  2819
STARLINK-36292          
1 68509U 26068B   26099.83335647  .00013080  00000+0  69656-4 0  9992
2 68509  53.1608 353.2433 0001591  86.2485 268.6390 15.80889845  2760
STARLINK-37260          
1 68510U 26068C   26099.83335647 -.00063244  00000+0 -31878-3 0  9997
2 68510  53.1608 353.2342 0000791  92.8188 266.3925 15.80904034  2818
STARLINK-37280          
1 68511U 26068D   26099.83335647 -.00001480  00000+0 -39590-5 0  9993
2 68511  53.1607 353.2258 0000920  75.4207 288.0680 15.80873958  2816
STARLINK-37286          
1 68512U 26068E   26099.83335647  .00029935  00000+0  15479-3 0  9995
2 68512  53.1607 353.2171 0000485 116.2638 251.4992 15.80857296  2816
STARLINK-36250          
1 68513U 26068F   26099.83335647  .00044750  00000+0  22934-3 0  9992
2 68513  53.1608 353.2082 0000727  92.8072 279.2347 15.80849061  2766
STARLINK-37251          
1 68514U 26068G   26099.83335647 -.00041635  00000+0 -20822-3 0  9998
2 68514  53.1608 353.1994 0000690 116.2481 260.0494 15.80894987  2816
STARLINK-36293          
1 68515U 26068H   26099.83335647 -.00237364  00000+0 -12243-2 0  9992
2 68515  53.1609 353.1908 0001012 101.5099 279.0019 15.81013993  2762
STARLINK-36290          
1 68516U 26068J   26099.83335647 -.00495004  00000+0 -26140-2 0  9991
2 68516  53.1608 353.1822 0000533 102.0729 282.6285 15.81176171  2763
STARLINK-36298          
1 68517U 26068K   26099.83335647 -.00775859  00000+0 -41868-2 0  9995
2 68517  53.1607 353.1734 0000572  88.4613 300.3773 15.81415305  2762
STARLINK-36857          
1 68518U 26068L   26099.83335647 -.01550170  00000+0 -84594-2 0  9997
2 68518  53.1607 353.1565 0000895  75.1135 321.8402 15.82058079  2810
STARLINK-36326          
1 68519U 26068M   26099.83335647 -.00998430  00000+0 -54826-2 0  9997
2 68519  53.1608 353.1650 0000995 143.6657 249.3359 15.81605301  2818
STARLINK-37126          
1 68520U 26068N   26099.83335647 -.01680141  00000+0 -92000-2 0  9993
2 68520  53.1607 353.1484 0000559 118.9920 282.0695 15.82244215  2819
STARLINK-36347          
1 68521U 26068P   26099.83335647 -.01790402  00000+0 -95731-2 0  9990
2 68521  53.1605 353.1398 0000707  91.6750 313.4410 15.82436752  2818
STARLINK-36322          
1 68522U 26068Q   26099.83335647 -.01890286  00000+0 -10084-1 0  9999
2 68522  53.1606 353.1318 0000399  90.2393 318.8914 15.82651139  2767
STARLINK-37208          
1 68523U 26068R   26099.83335647 -.01895544  00000+0 -10044-1 0  9998
2 68523  53.1604 353.1239 0000655 105.9874 307.1887 15.82798753  2811
STARLINK-36302          
1 68524U 26068S   26099.83335647 -.01934119  00000+0 -10200-1 0  9995
2 68524  53.1604 353.1151 0000696 100.8197 316.3721 15.82962476  2816
