[{"OBJECT_NAME":"STARLINK-37262","OBJECT_ID":"2026-068A","EPOCH":"2026-04-09T20:00:01.999008","MEAN_MOTION":15.80906876,"ECCENTRICITY":9.54e-5,"INCLINATION":53.1608,"RA_OF_ASC_NODE":353.2523,"ARG_OF_PERICENTER":112.9611,"MEAN_ANOMALY":237.7023,"EPHEMERIS_TYPE":0,"CLASSIFICATION_TYPE":"U","NORAD_CAT_ID":68508,"ELEMENT_SET_NO":999,"REV_AT_EPOCH":281,"BSTAR":-0.00035922,"MEAN_MOTION_DOT":-0.00071126,"MEAN_MOTION_DDOT":0},{"OBJECT_NAME":"STARLINK-36292","OBJECT_ID":"2026-068B","EPOCH":"2026-04-09T20:00:01.999008","MEAN_MOTION":15.80889845,"ECCENTRICITY":0.0001591,"INCLINATION":53.1608,"RA_OF_ASC_NODE":353.2433,"ARG_OF_PERICENTER":86.2485,"MEAN_ANOMALY":268.639,"EPHEMERIS_TYPE":0,"CLASSIFICATION_TYPE":"U","NORAD_CAT_ID":68509,"ELEMENT_SET_NO":999,"REV_AT_EPOCH":276,"BSTAR":6.9656e-5,"MEAN_MOTION_DOT":0.0001308,"MEAN_MOTION_DDOT":0},{"OBJECT_NAME":"STARLINK-37260","OBJECT_ID":"2026-068C","EPOCH":"2026-04-09T20:00:01.999008","MEAN_MOTION":15.80904034,"ECCENTRICITY":7.91e-5,"INCLINATION":53.1608,"RA_OF_ASC_NODE":353.2342,"ARG_OF_PERICENTER":92.8188,"MEAN_ANOMALY":266.3925,"EPHEMERIS_TYPE":0,"CLASSIFICATION_TYPE":"U","NORAD_CAT_ID":68510,"ELEMENT_SET_NO":999,"REV_AT_EPOCH":281,"BSTAR":-0.00031878,"MEAN_MOTION_DOT":-0.00063244,"MEAN_MOTION_DDOT":0},{"OBJECT_NAME":"STARLINK-37280","OBJECT_ID":"2026-068D","EPOCH":"2026-04-09T20:00:01.999008","MEAN_MOTION":15.80873958,"ECCENTRICITY":9.2e-5,"INCLINATION":53.1607,"RA_OF_ASC_NODE":353.2258,"ARG_OF_PERICENTER":75.4207,"MEAN_ANOMALY":288.068,"EPHEMERIS_TYPE":0,"CLASSIFICATION_TYPE":"U","NORAD_CAT_ID":68511,"ELEMENT_SET_NO":999,"REV_AT_EPOCH":281,"BSTAR":-3.959e-6,"MEAN_MOTION_DOT":-1.48e-5,"MEAN_MOTION_DDOT":0},{"OBJECT_NAME":"STARLINK-37286","OBJECT_ID":"2026-068E","EPOCH":"2026-04-09T20:00:01.999008","MEAN_MOTION":15.80857296,"ECCENTRICITY":4.85e-5,"INCLINATION":53.1607,"RA_OF_ASC_NODE":353.2171,"ARG_OF_PERICENTER":116.2638,"MEAN_ANOMALY":251.4992,"EPHEMERIS_TYPE":0,"CLASSIFICATION_TYPE":"U","NORAD_CAT_ID":68512,"ELEMENT_SET_NO":999,"REV_AT_EPOCH":281,"BSTAR":0.00015479,"MEAN_MOTION_DOT":0.00029935,"MEAN_MOTION_DDOT":0},{"OBJECT_NAME":"STARLINK-36250","OBJECT_ID":"2026-068F","EPOCH":"2026-04-09T20:00:01.999008","MEAN_MOTION":15.80849061,"ECCENTRICITY":7.27e-5,"INCLINATION":53.1608,"RA_OF_ASC_NODE":353.2082,"ARG_OF_PERICENTER":92.8072,"MEAN_ANOMALY":279.2347,"EPHEMERIS_TYPE":0,"CLASSIFICATION_TYPE":"U","NORAD_CAT_ID":68513,"ELEMENT_SET_NO":999,"REV_AT_EPOCH":276,"BSTAR":0.00022934,"MEAN_MOTION_DOT":0.0004475,"MEAN_MOTION_DDOT":0},{"OBJECT_NAME":"STARLINK-37251","OBJECT_ID":"2026-068G","EPOCH":"2026-04-09T20:00:01.999008","MEAN_MOTION":15.80894987,"ECCENTRICITY":6.9e-5,"INCLINATION":53.1608,"RA_OF_ASC_NODE":353.1994,"ARG_OF_PERICENTER":116.2481,"MEAN_ANOMALY":260.0494,"EPHEMERIS_TYPE":0,"CLASSIFICATION_TYPE":"U","NORAD_CAT_ID":68514,"ELEMENT_SET_NO":999,"REV_AT_EPOCH":281,"BSTAR":-0.00020822,"MEAN_MOTION_DOT":-0.00041635,"MEAN_MOTION_DDOT":0},{"OBJECT_NAME":"STARLINK-36293","OBJECT_ID":"2026-068H","EPOCH":"2026-04-09T20:00:01.999008","MEAN_MOTION":15.81013993,"ECCENTRICITY":0.0001012,"INCLINATION":53.1609,"RA_OF_ASC_NODE":353.1908,"ARG_OF_PERICENTER":101.5099,"MEAN_ANOMALY":279.0019,"EPHEMERIS_TYPE":0,"CLASSIFICATION_TYPE":"U","NORAD_CAT_ID":68515,"ELEMENT_SET_NO":999,"REV_AT_EPOCH":276,"BSTAR":-0.0012243,"MEAN_MOTION_DOT":-0.00237364,"MEAN_MOTION_DDOT":0},{"OBJECT_NAME":"STARLINK-36290","OBJECT_ID":"2026-068J","EPOCH":"2026-04-09T20:00:01.999008","MEAN_MOTION":15.81176171,"ECCENTRICITY":5.33e-5,"INCLINATION":53.1608,"RA_OF_ASC_NODE":353.1822,"ARG_OF_PERICENTER":102.0729,"MEAN_ANOMALY":282.6285,"EPHEMERIS_TYPE":0,"CLASSIFICATION_TYPE":"U","NORAD_CAT_ID":68516,"ELEMENT_SET_NO":999,"REV_AT_EPOCH":276,"BSTAR":-0.002614,"MEAN_MOTION_DOT":-0.00495004,"MEAN_MOTION_DDOT":0},{"OBJECT_NAME":"STARLINK-36298","OBJECT_ID":"2026-068K","EPOCH":"2026-04-09T20:00:01.999008","MEAN_MOTION":15.81415305,"ECCENTRICITY":5.72e-5,"INCLINATION":53.1607,"RA_OF_ASC_NODE":353.1734,"ARG_OF_PERICENTER":88.4613,"MEAN_ANOMALY":300.3773,"EPHEMERIS_TYPE":0,"CLASSIFICATION_TYPE":"U","NORAD_CAT_ID":68517,"ELEMENT_SET_NO":999,"REV_AT_EPOCH":276,"BSTAR":-0.0041868,"MEAN_MOTION_DOT":-0.00775859,"MEAN_MOTION_DDOT":0},{"OBJECT_NAME":"STARLINK-36857","OBJECT_ID":"2026-068L","EPOCH":"2026-04-09T20:00:01.999008","MEAN_MOTION":15.82058079,"ECCENTRICITY":8.95e-5,"INCLINATION":53.1607,"RA_OF_ASC_NODE":353.1565,"ARG_OF_PERICENTER":75.1135,"MEAN_ANOMALY":321.8402,"EPHEMERIS_TYPE":0,"CLASSIFICATION_TYPE":"U","NORAD_CAT_ID":68518,"ELEMENT_SET_NO":999,"REV_AT_EPOCH":281,"BSTAR":-0.0084594,"MEAN_MOTION_DOT":-0.0155017,"MEAN_MOTION_DDOT":0},{"OBJECT_NAME":"STARLINK-36326","OBJECT_ID":"2026-068M","EPOCH":"2026-04-09T20:00:01.999008","MEAN_MOTION":15.81605301,"ECCENTRICITY":9.95e-5,"INCLINATION":53.1608,"RA_OF_ASC_NODE":353.165,"ARG_OF_PERICENTER":143.6657,"MEAN_ANOMALY":249.3359,"EPHEMERIS_TYPE":0,"CLASSIFICATION_TYPE":"U","NORAD_CAT_ID":68519,"ELEMENT_SET_NO":999,"REV_AT_EPOCH":281,"BSTAR":-0.0054826,"MEAN_MOTION_DOT":-0.0099843,"MEAN_MOTION_DDOT":0},{"OBJECT_NAME":"STARLINK-37126","OBJECT_ID":"2026-068N","EPOCH":"2026-04-09T20:00:01.999008","MEAN_MOTION":15.82244215,"ECCENTRICITY":5.59e-5,"INCLINATION":53.1607,"RA_OF_ASC_NODE":353.1484,"ARG_OF_PERICENTER":118.992,"MEAN_ANOMALY":282.0695,"EPHEMERIS_TYPE":0,"CLASSIFICATION_TYPE":"U","NORAD_CAT_ID":68520,"ELEMENT_SET_NO":999,"REV_AT_EPOCH":281,"BSTAR":-0.0092,"MEAN_MOTION_DOT":-0.01680141,"MEAN_MOTION_DDOT":0},{"OBJECT_NAME":"STARLINK-36347","OBJECT_ID":"2026-068P","EPOCH":"2026-04-09T20:00:01.999008","MEAN_MOTION":15.82436752,"ECCENTRICITY":7.07e-5,"INCLINATION":53.1605,"RA_OF_ASC_NODE":353.1398,"ARG_OF_PERICENTER":91.675,"MEAN_ANOMALY":313.441,"EPHEMERIS_TYPE":0,"CLASSIFICATION_TYPE":"U","NORAD_CAT_ID":68521,"ELEMENT_SET_NO":999,"REV_AT_EPOCH":281,"BSTAR":-0.0095731,"MEAN_MOTION_DOT":-0.01790402,"MEAN_MOTION_DDOT":0},{"OBJECT_NAME":"STARLINK-36322","OBJECT_ID":"2026-068Q","EPOCH":"2026-04-09T20:00:01.999008","MEAN_MOTION":15.82651139,"ECCENTRICITY":3.99e-5,"INCLINATION":53.1606,"RA_OF_ASC_NODE":353.1318,"ARG_OF_PERICENTER":90.2393,"MEAN_ANOMALY":318.8914,"EPHEMERIS_TYPE":0,"CLASSIFICATION_TYPE":"U","NORAD_CAT_ID":68522,"ELEMENT_SET_NO":999,"REV_AT_EPOCH":276,"BSTAR":-0.010084,"MEAN_MOTION_DOT":-0.01890286,"MEAN_MOTION_DDOT":0},{"OBJECT_NAME":"STARLINK-37208","OBJECT_ID":"2026-068R","EPOCH":"2026-04-09T20:00:01.999008","MEAN_MOTION":15.82798753,"ECCENTRICITY":6.55e-5,"INCLINATION":53.1604,"RA_OF_ASC_NODE":353.1239,"ARG_OF_PERICENTER":105.9874,"MEAN_ANOMALY":307.1887,"EPHEMERIS_TYPE":0,"CLASSIFICATION_TYPE":"U","NORAD_CAT_ID":68523,"ELEMENT_SET_NO":999,"REV_AT_EPOCH":281,"BSTAR":-0.010044,"MEAN_MOTION_DOT":-0.01895544,"MEAN_MOTION_DDOT":0},{"OBJECT_NAME":"STARLINK-36302","OBJECT_ID":"2026-068S","EPOCH":"2026-04-09T20:00:01.999008","MEAN_MOTION":15.82962476,"ECCENTRICITY":6.96e-5,"INCLINATION":53.1604,"RA_OF_ASC_NODE":353.1151,"ARG_OF_PERICENTER":100.8197,"MEAN_ANOMALY":316.3721,"EPHEMERIS_TYPE":0,"CLASSIFICATION_TYPE":"U","NORAD_CAT_ID":68524,"ELEMENT_SET_NO":999,"REV_AT_EPOCH":281,"BSTAR":-0.0102,"MEAN_MOTION_DOT":-0.01934119,"MEAN_MOTION_DDOT":0}]
